NORAD_CAT_ID,OBJECT_NAME,OBJECT_TYPE,EPOCH,MEAN_MOTION,ECCENTRICITY,INCLINATION,RA_OF_ASC_NODE,ARG_OF_PERICENTER,MEAN_ANOMALY,BSTAR,MEAN_MOTION_DOT,MEAN_MOTION_DDOT,TLE_LINE0,TLE_LINE1,TLE_LINE2,SEMIMAJOR_AXIS,PERIOD,APOGEE,PERIGEE,DECAYED
52124.0,STARLINK-3684,PAYLOAD,2024-05-02 00:08:47,15.08853872,0.0001247,53.219,236.8709,88.5685,271.545,4.512e-05,4.31e-06,0.0,0 STARLINK-3684,1 52124U 22029AN  24123.00610473  .00000431  00000-0  45120-4 0  9996,2 52124  53.2190 236.8709 0001247  88.5685 271.5450 15.08853872118635,6917.838,95.437,540.566,538.84,0.0
52124.0,STARLINK-3684,PAYLOAD,2024-05-02 12:51:54,15.08821452,0.0001376,53.2185,234.4922,85.4547,274.6602,-5.3537e-05,-1.139e-05,0.0,0 STARLINK-3684,1 52124U 22029AN  24123.53605167 -.00001139  00000-0 -53537-4 0  9997,2 52124  53.2185 234.4922 0001376  85.4547 274.6602 15.08821452118717,6917.937,95.439,540.754,538.85,0.0
52124.0,STARLINK-3684,PAYLOAD,2024-05-02 14:27:17,15.08825515,0.0001331,53.2174,234.195,86.2102,273.9042,-6.7071e-05,-1.355e-05,0.0,0 STARLINK-3684,1 52124U 22029AN  24123.60229011 -.00001355  00000-0 -67071-4 0  9993,2 52124  53.2174 234.1950 0001331  86.2102 273.9042 15.08825515118725,6917.925,95.438,540.71,538.869,0.0
52124.0,STARLINK-3684,PAYLOAD,2024-05-02 23:59:35,15.088413,0.0001069,53.2169,232.4094,85.3717,274.7397,5.5488e-05,5.95e-06,0.0,0 STARLINK-3684,1 52124U 22029AN  24123.99971654  .00000595  00000-0  55488-4 0  9994,2 52124  53.2169 232.4094 0001069  85.3717 274.7397 15.08841300118787,6917.876,95.437,540.481,539.002,0.0
52124.0,STARLINK-3684,PAYLOAD,2024-05-03 12:42:41,15.08837216,0.0001405,53.2174,230.0338,98.3614,261.7538,-5.4509e-05,-1.155e-05,0.0,0 STARLINK-3684,1 52124U 22029AN  24124.52964498 -.00001155  00000-0 -54509-4 0  9990,2 52124  53.2174 230.0338 0001405  98.3614 261.7538 15.08837216118865,6917.889,95.438,540.726,538.782,0.0
52124.0,STARLINK-3684,PAYLOAD,2024-05-03 23:50:22,15.08845215,0.0001515,53.2167,227.955,95.7741,264.3423,9.6443e-05,1.247e-05,0.0,0 STARLINK-3684,1 52124U 22029AN  24124.99331476  .00001247  00000-0  96443-4 0  9998,2 52124  53.2167 227.9550 0001515  95.7741 264.3423 15.08845215118930,6917.864,95.437,540.778,538.681,0.0
52124.0,STARLINK-3684,PAYLOAD,2024-05-04 12:33:29,15.08819237,0.0001317,53.2165,225.5709,86.2876,273.8267,2.3206e-05,8.1e-07,0.0,0 STARLINK-3684,1 52124U 22029AN  24125.52325724  .00000081  00000-0  23206-4 0  9999,2 52124  53.2165 225.5709 0001317  86.2876 273.8267 15.08819237119018,6917.944,95.439,540.72,538.898,0.0
52124.0,STARLINK-3684,PAYLOAD,2024-05-04 23:41:10,15.08836125,0.0001279,53.2175,223.4899,81.4501,278.6636,1.3488e-05,-7.3e-07,0.0,0 STARLINK-3684,1 52124U 22029AN  24125.98692984 -.00000073  00000-0  13488-4 0  9997,2 52124  53.2175 223.4899 0001279  81.4501 278.6636 15.08836125119080,6917.892,95.438,540.642,538.872,0.0
52124.0,STARLINK-3684,PAYLOAD,2024-05-05 12:24:15,15.08846191,0.0001262,53.2167,221.1108,81.332,278.7815,7.6288e-05,9.27e-06,0.0,0 STARLINK-3684,1 52124U 22029AN  24126.51684358  .00000927  00000-0  76288-4 0  9997,2 52124  53.2167 221.1108 0001262  81.3320 278.7815 15.08846191119162,6917.861,95.437,540.599,538.853,0.0
52124.0,STARLINK-3684,PAYLOAD,2024-05-05 13:59:38,15.08850118,0.0001555,53.217,220.8136,115.9213,244.194,5.6016e-05,6.04e-06,0.0,0 STARLINK-3684,1 52124U 22029AN  24126.58308092  .00000604  00000-0  56016-4 0  9991,2 52124  53.2170 220.8136 0001555 115.9213 244.1940 15.08850118119174,6917.849,95.437,540.79,538.639,0.0
52124.0,STARLINK-3684,PAYLOAD,2024-05-05 15:35:01,15.08855246,0.0001864,53.2172,220.516,127.582,232.5342,3.7508e-05,3.09e-06,0.0,0 STARLINK-3684,1 52124U 22029AN  24126.64931758  .00000309  00000-0  37508-4 0  9996,2 52124  53.2172 220.5160 0001864 127.5820 232.5342 15.08855246119181,6917.834,95.437,540.988,538.409,0.0
52124.0,STARLINK-3684,PAYLOAD,2024-05-05 23:31:55,15.08870369,0.0001194,53.2172,219.0292,110.1856,249.9265,-0.00013941,-2.508e-05,0.0,0 STARLINK-3684,1 52124U 22029AN  24126.98050884 -.00002508  00000-0 -13941-3 0  9994,2 52124  53.2172 219.0292 0001194 110.1856 249.9265 15.08870369119238,6917.788,95.436,540.479,538.827,0.0
52124.0,STARLINK-3684,PAYLOAD,2024-05-06 12:15:02,15.08840209,0.0001405,53.2176,216.6503,83.3292,276.786,0.00014703,2.053e-05,0.0,0 STARLINK-3684,1 52124U 22029AN  24127.51044530  .00002053  00000-0  14703-3 0  9995,2 52124  53.2176 216.6503 0001405  83.3292 276.7860 15.08840209119318,6917.88,95.438,540.717,538.773,0.0
52124.0,STARLINK-3684,PAYLOAD,2024-05-06 23:22:43,15.08848133,0.0001312,53.2168,214.5673,84.8015,275.3127,0.00015051,2.109e-05,0.0,0 STARLINK-3684,1 52124U 22029AN  24127.97411842  .00002109  00000-0  15051-3 0  9998,2 52124  53.2168 214.5673 0001312  84.8015 275.3127 15.08848133119382,6917.856,95.437,540.628,538.813,0.0
52124.0,STARLINK-3684,PAYLOAD,2024-05-07 12:05:49,15.08840522,0.0001314,53.2172,212.1886,93.242,266.8723,-6.9139e-05,-1.388e-05,0.0,0 STARLINK-3684,1 52124U 22029AN  24128.50404892 -.00001388  00000-0 -69139-4 0  9992,2 52124  53.2172 212.1886 0001314  93.2420 266.8723 15.08840522119463,6917.879,95.438,540.653,538.835,0.0
52124.0,STARLINK-3684,PAYLOAD,2024-05-07 15:16:35,15.08842086,0.000136,53.2178,211.5942,90.9434,269.1714,-6.3098e-05,-1.292e-05,0.0,0 STARLINK-3684,1 52124U 22029AN  24128.63652767 -.00001292  00000-0 -63098-4 0  9994,2 52124  53.2178 211.5942 0001360  90.9434 269.1714 15.08842086119480,6917.874,95.437,540.68,538.798,0.0
52124.0,STARLINK-3684,PAYLOAD,2024-05-08 11:56:36,15.08846649,0.0001223,53.2166,207.7294,85.3586,274.7546,4.3367e-05,4.03e-06,0.0,0 STARLINK-3684,1 52124U 22029AN  24129.49764148  .00000403  00000-0  43367-4 0  9994,2 52124  53.2166 207.7294 0001223  85.3586 274.7546 15.08846649119617,6917.86,95.437,540.571,538.879,0.0
52124.0,STARLINK-3684,PAYLOAD,2024-05-09 05:25:50,15.08838159,0.000126,53.2164,204.4583,90.0341,270.0795,0.00014611,2.038e-05,0.0,0 STARLINK-3684,1 52124U 22029AN  24130.22628302  .00002038  00000-0  14611-3 0  9993,2 52124  53.2164 204.4583 0001260  90.0341 270.0795 15.08838159119727,6917.886,95.438,540.623,538.879,0.0
52124.0,STARLINK-3684,PAYLOAD,2024-05-09 11:47:23,15.0883766,0.0001177,53.216,203.2675,88.8387,271.2739,8.3797e-05,1.046e-05,0.0,0 STARLINK-3684,1 52124U 22029AN  24130.49124681  .00001046  00000-0  83797-4 0  9993,2 52124  53.2160 203.2675 0001177  88.8387 271.2739 15.08837660119765,6917.888,95.438,540.567,538.938,0.0
52124.0,STARLINK-3684,PAYLOAD,2024-05-10 11:38:11,15.08837452,0.0001178,53.2154,198.8072,87.3841,272.7286,9.4734e-06,-1.37e-06,0.0,0 STARLINK-3684,1 52124U 22029AN  24131.48485155 -.00000137  00000-0  94734-5 0  9994,2 52124  53.2154 198.8072 0001178  87.3841 272.7286 15.08837452119917,6917.888,95.438,540.568,538.938,0.0
52124.0,STARLINK-3684,PAYLOAD,2024-05-11 13:04:18,15.088846,0.0001406,53.2156,194.0517,99.545,260.5701,0.00068683,0.00010673,0.0,0 STARLINK-3684,1 52124U 22029AN  24132.54466099  .00010673  00000-0  68683-3 0  9995,2 52124  53.2156 194.0517 0001406  99.5450 260.5701 15.08884600120079,6917.744,95.435,540.582,538.636,0.0
52124.0,STARLINK-3684,PAYLOAD,2024-05-12 12:55:09,15.08817131,0.0001287,53.2149,189.5907,117.3494,242.7629,-0.00021392,-3.689e-05,0.0,0 STARLINK-3684,1 52124U 22029AN  24133.53830118 -.00003689  00000-0 -21392-3 0  9999,2 52124  53.2149 189.5907 0001287 117.3494 242.7629 15.08817131120220,6917.95,95.439,540.706,538.925,0.0
52124.0,STARLINK-3684,PAYLOAD,2024-05-13 03:13:34,15.08868793,0.0001308,53.2156,186.9152,105.9034,254.2102,0.00020719,3.014e-05,0.0,0 STARLINK-3684,1 52124U 22029AN  24134.13442484  .00003014  00000-0  20719-3 0  9993,2 52124  53.2156 186.9152 0001308 105.9034 254.2102 15.08868793120312,6917.792,95.436,540.562,538.753,0.0
52124.0,STARLINK-3684,PAYLOAD,2024-05-13 12:45:53,15.08851144,0.0001097,53.2154,185.1309,113.049,247.0617,-0.00016847,-2.969e-05,0.0,0 STARLINK-3684,1 52124U 22029AN  24134.53186938 -.00002969  00000-0 -16847-3 0  9993,2 52124  53.2154 185.1309 0001097 113.0490 247.0617 15.08851144120375,6917.846,95.437,540.47,538.952,0.0
52124.0,STARLINK-3684,PAYLOAD,2024-05-13 20:42:49,15.08847636,8.93e-05,53.2153,183.6418,93.1024,267.007,-0.00013366,-2.415e-05,0.0,0 STARLINK-3684,1 52124U 22029AN  24134.86307120 -.00002415  00000-0 -13366-3 0  9996,2 52124  53.2153 183.6418 0000893  93.1024 267.0070 15.08847636120424,6917.857,95.437,540.34,539.104,0.0
52124.0,STARLINK-3684,PAYLOAD,2024-05-14 03:04:23,15.08828614,0.0001531,53.2173,182.4522,108.2049,251.911,0.00026213,3.885e-05,0.0,0 STARLINK-3684,1 52124U 22029AN  24135.12804692  .00003885  00000-0  26213-3 0  9997,2 52124  53.2173 182.4522 0001531 108.2049 251.9110 15.08828614120460,6917.915,95.438,540.839,538.721,0.0
52124.0,STARLINK-3684,PAYLOAD,2024-05-14 12:36:42,15.08823683,0.0001259,53.2174,180.6675,116.3486,243.7635,0.00020706,3.008e-05,0.0,0 STARLINK-3684,1 52124U 22029AN  24135.52549378  .00003008  00000-0  20706-3 0  9996,2 52124  53.2174 180.6675 0001259 116.3486 243.7635 15.08823683120521,6917.93,95.439,540.666,538.924,0.0
52124.0,STARLINK-3684,PAYLOAD,2024-05-14 20:33:38,15.08823341,0.0001229,53.2177,179.1805,112.1797,247.9326,0.00020736,3.012e-05,0.0,0 STARLINK-3684,1 52124U 22029AN  24135.85669631  .00003012  00000-0  20736-3 0  9995,2 52124  53.2177 179.1805 0001229 112.1797 247.9326 15.08823341120577,6917.931,95.439,540.647,538.946,0.0
52124.0,STARLINK-3684,PAYLOAD,2024-05-15 06:05:56,15.0883665,9.77e-05,53.2173,177.3962,107.4884,252.6215,-1.422e-05,-5.14e-06,0.0,0 STARLINK-3684,1 52124U 22029AN  24136.25412948 -.00000514  00000-0 -14220-4 0  9995,2 52124  53.2173 177.3962 0000977 107.4884 252.6215 15.08836650120634,6917.891,95.438,540.432,539.08,0.0
52124.0,STARLINK-3684,PAYLOAD,2024-05-15 12:27:29,15.08834424,9.33e-05,53.2172,176.2074,102.8355,257.2741,-3.3194e-05,-8.16e-06,0.0,0 STARLINK-3684,1 52124U 22029AN  24136.51909193 -.00000816  00000-0 -33194-4 0  9993,2 52124  53.2172 176.2074 0000933 102.8355 257.2741 15.08834424120675,6917.897,95.438,540.408,539.117,0.0
